NORAD_CAT_ID,OBJECT_NAME,OBJECT_TYPE,EPOCH,MEAN_MOTION,ECCENTRICITY,INCLINATION,RA_OF_ASC_NODE,ARG_OF_PERICENTER,MEAN_ANOMALY,BSTAR,MEAN_MOTION_DOT,MEAN_MOTION_DDOT,TLE_LINE0,TLE_LINE1,TLE_LINE2,SEMIMAJOR_AXIS,PERIOD,APOGEE,PERIGEE,DECAYED
53890.0,STARLINK-5050,PAYLOAD,2024-05-22 21:09:51,15.08814492,0.0001215,53.2174,352.9369,54.6321,305.4784,-0.00045975,-7.592e-05,0.0,0 STARLINK-5050,1 53890U 22119E   24143.88184786 -.00007592  00000-0 -45975-3 0  9992,2 53890  53.2174 352.9369 0001215  54.6321 305.4784 15.08814492 92752,6917.958,95.439,540.664,538.983,0.0
53890.0,STARLINK-5050,PAYLOAD,2024-05-23 19:25:16,15.08834225,0.0001947,53.2179,348.7871,44.0395,316.0752,0.00021192,3.086e-05,0.0,0 STARLINK-5050,1 53890U 22119E   24144.80921514  .00003086  00000-0  21192-3 0  9990,2 53890  53.2179 348.7871 0001947  44.0395 316.0752 15.08834225 92898,6917.898,95.438,541.11,538.416,0.0
53890.0,STARLINK-5050,PAYLOAD,2024-05-23 21:00:38,15.08850748,9.46e-05,53.2168,348.4814,74.2125,285.8971,0.00051231,7.877e-05,0.0,0 STARLINK-5050,1 53890U 22119E   24144.87544707  .00007877  00000-0  51231-3 0  9991,2 53890  53.2168 348.4814 0000946  74.2125 285.8971 15.08850748 93327,6917.848,95.437,540.367,539.058,0.0
53890.0,STARLINK-5050,PAYLOAD,2024-05-23 22:36:01,15.08854286,8.32e-05,53.2167,348.1835,95.5669,264.5419,0.00056595,8.734e-05,0.0,0 STARLINK-5050,1 53890U 22119E   24144.94168498  .00008734  00000-0  56595-3 0  9999,2 53890  53.2167 348.1835 0000832  95.5669 264.5419 15.08854286 92915,6917.837,95.437,540.277,539.126,0.0
53890.0,STARLINK-5050,PAYLOAD,2024-05-24 20:51:25,15.08853777,0.0001135,53.2166,344.0179,53.3388,306.7709,0.00052303,8.049e-05,0.0,0 STARLINK-5050,1 53890U 22119E   24145.86904646  .00008049  00000-0  52303-3 0  9996,2 53890  53.2166 344.0179 0001135  53.3388 306.7709 15.08853777 93058,6917.838,95.437,540.488,538.918,0.0
53890.0,STARLINK-5050,PAYLOAD,2024-05-24 22:26:48,15.08861227,0.000111,53.2161,343.7178,50.2392,309.8698,0.0004903,7.528e-05,0.0,0 STARLINK-5050,1 53890U 22119E   24145.93528120  .00007528  00000-0  49030-3 0  9997,2 53890  53.2161 343.7178 0001110  50.2392 309.8698 15.08861227 93489,6917.816,95.436,540.448,538.913,0.0
53890.0,STARLINK-5050,PAYLOAD,2024-05-25 12:45:16,15.08860249,0.0002524,53.213,341.0521,71.9767,288.15,0.0003032,4.543e-05,0.0,0 STARLINK-5050,1 53890U 22119E   24146.53143943  .00004543  00000-0  30320-3 0  9996,2 53890  53.2130 341.0521 0002524  71.9767 288.1500 15.08860249 93578,6917.818,95.436,541.43,537.937,0.0
53890.0,STARLINK-5050,PAYLOAD,2024-05-25 19:06:49,15.08832621,7.1e-05,53.2151,339.8569,89.5583,270.549,-0.00031416,-5.283e-05,0.0,0 STARLINK-5050,1 53890U 22119E   24146.79640297 -.00005283  00000-0 -31416-3 0  9999,2 53890  53.2151 339.8569 0000710  89.5583 270.5490 15.08832621 93198,6917.903,95.438,540.259,539.277,0.0
53890.0,STARLINK-5050,PAYLOAD,2024-05-26 17:22:13,15.08846398,7.46e-05,53.2158,335.6929,90.9186,269.1892,0.00027323,4.064e-05,0.0,0 STARLINK-5050,1 53890U 22119E   24147.72376305  .00004064  00000-0  27323-3 0  9995,2 53890  53.2158 335.6929 0000746  90.9186 269.1892 15.08846398 93335,6917.861,95.437,540.242,539.21,0.0
53890.0,STARLINK-5050,PAYLOAD,2024-05-26 22:08:22,15.0884935,7.9e-05,53.216,334.8011,86.5586,273.5497,0.00072314,0.00011243,0.0,0 STARLINK-5050,1 53890U 22119E   24147.92248447  .00011243  00000-0  72314-3 0  9999,2 53890  53.2160 334.8011 0000790  86.5586 273.5497 15.08849350 93785,6917.852,95.437,540.263,539.17,0.0
53890.0,STARLINK-5050,PAYLOAD,2024-05-27 06:05:17,15.08854449,0.0001068,53.2153,333.3171,24.1347,335.9695,0.00061522,9.521e-05,0.0,0 STARLINK-5050,1 53890U 22119E   24148.25367769  .00009521  00000-0  61522-3 0  9990,2 53890  53.2153 333.3171 0001068  24.1347 335.9695 15.08854449 93418,6917.836,95.437,540.44,538.962,0.0
53890.0,STARLINK-5050,PAYLOAD,2024-05-28 18:39:10,15.08845092,8.68e-05,53.2177,326.4721,116.4331,243.675,7.8554e-05,9.63e-06,0.0,0 STARLINK-5050,1 53890U 22119E   24149.77719929  .00000963  00000-0  78554-4 0  9992,2 53890  53.2177 326.4721 0000868 116.4331 243.6750 15.08845092 93649,6917.865,95.437,540.33,539.129,0.0
53890.0,STARLINK-5050,PAYLOAD,2024-05-28 21:49:56,15.08844916,8.91e-05,53.2178,325.8779,118.5585,241.5497,5.9407e-05,6.58e-06,0.0,0 STARLINK-5050,1 53890U 22119E   24149.90967910  .00000658  00000-0  59407-4 0  9999,2 53890  53.2178 325.8779 0000891 118.5585 241.5497 15.08844916 94084,6917.865,95.437,540.347,539.114,0.0
53890.0,STARLINK-5050,PAYLOAD,2024-05-29 12:08:24,15.08841219,7.58e-05,53.2177,323.202,95.7242,264.3837,7.2096e-05,8.6e-06,0.0,0 STARLINK-5050,1 53890U 22119E   24150.50584074  .00000860  00000-0  72096-4 0  9997,2 53890  53.2177 323.2020 0000758  95.7242 264.3837 15.08841219 94176,6917.877,95.437,540.266,539.217,0.0
53890.0,STARLINK-5050,PAYLOAD,2024-05-29 18:29:57,15.08839682,7.53e-05,53.2182,322.0125,97.0225,263.0853,6.7003e-05,7.79e-06,0.0,0 STARLINK-5050,1 53890U 22119E   24150.77080277  .00000779  00000-0  67003-4 0  9993,2 53890  53.2182 322.0125 0000753  97.0225 263.0853 15.08839682 93798,6917.881,95.438,540.267,539.225,0.0
53890.0,STARLINK-5050,PAYLOAD,2024-05-29 21:40:43,15.08840435,7.58e-05,53.2182,321.4178,95.8428,264.2651,7.2711e-05,8.7e-06,0.0,0 STARLINK-5050,1 53890U 22119E   24150.90328275  .00000870  00000-0  72711-4 0  9995,2 53890  53.2182 321.4178 0000758  95.8428 264.2651 15.08840435 94232,6917.879,95.438,540.268,539.22,0.0
53890.0,STARLINK-5050,PAYLOAD,2024-05-30 16:45:21,15.08841489,7.47e-05,53.2179,317.8493,88.8087,271.299,9.8198e-05,1.276e-05,0.0,0 STARLINK-5050,1 53890U 22119E   24151.69816229  .00001276  00000-0  98198-4 0  9991,2 53890  53.2179 317.8493 0000747  88.8087 271.2990 15.08841489 94355,6917.876,95.437,540.258,539.224,0.0
53890.0,STARLINK-5050,PAYLOAD,2024-05-31 19:46:53,15.0885521,6.95e-05,53.2178,312.7952,95.3014,264.8058,0.00017555,2.508e-05,0.0,0 STARLINK-5050,1 53890U 22119E   24152.82422814  .00002508  00000-0  17555-3 0  9996,2 53890  53.2178 312.7952 0000695  95.3014 264.8058 15.08855210 94106,6917.834,95.437,540.18,539.218,0.0
53890.0,STARLINK-5050,PAYLOAD,2024-06-01 03:43:48,15.08868,9.89e-05,53.2184,311.3083,66.5228,293.5868,0.00025276,3.74e-05,0.0,0 STARLINK-5050,1 53890U 22119E   24153.15541717  .00003740  00000-0  25276-3 0  9995,2 53890  53.2184 311.3083 0000989  66.5228 293.5868 15.08868000 94150,6917.795,95.436,540.344,538.976,0.0
53890.0,STARLINK-5050,PAYLOAD,2024-06-01 14:51:32,15.08822838,0.0001041,53.2166,309.2261,75.5918,284.519,-0.00016478,-2.908e-05,0.0,0 STARLINK-5050,1 53890U 22119E   24153.61912619 -.00002908  00000-0 -16478-3 0  9990,2 53890  53.2166 309.2261 0001041  75.5918 284.5190 15.08822838 94641,6917.933,95.439,540.518,539.078,0.0
53890.0,STARLINK-5050,PAYLOAD,2024-06-01 18:02:18,15.08827837,0.0001039,53.2171,308.6331,73.644,286.4667,-0.00024174,-4.132e-05,0.0,0 STARLINK-5050,1 53890U 22119E   24153.75160411 -.00004132  00000-0 -24174-3 0  9993,2 53890  53.2171 308.6331 0001039  73.6440 286.4667 15.08827837 94244,6917.918,95.438,540.501,539.064,0.0
53890.0,STARLINK-5050,PAYLOAD,2024-06-02 03:34:37,15.08839211,0.0001021,53.2172,306.8484,74.7518,285.3587,-2.6266e-05,-7.06e-06,0.0,0 STARLINK-5050,1 53890U 22119E   24154.14904015 -.00000706  00000-0 -26266-4 0  9991,2 53890  53.2172 306.8484 0001021  74.7518 285.3587 15.08839211 94308,6917.883,95.438,540.454,539.041,0.0
53890.0,STARLINK-5050,PAYLOAD,2024-06-02 09:56:09,15.08836976,0.0001213,53.2179,305.6602,75.5404,284.5723,5.3678e-05,5.66e-06,0.0,0 STARLINK-5050,1 53890U 22119E   24154.41400392  .00000566  00000-0  53678-4 0  9999,2 53890  53.2179 305.6602 0001213  75.5404 284.5723 15.08836976 94768,6917.89,95.438,540.594,538.915,0.0
53890.0,STARLINK-5050,PAYLOAD,2024-06-02 16:17:42,15.08840143,0.0001189,53.2172,304.4711,75.8287,284.2837,0.00018491,2.656e-05,0.0,0 STARLINK-5050,1 53890U 22119E   24154.67896300  .00002656  00000-0  18491-3 0  9990,2 53890  53.2172 304.4711 0001189  75.8287 284.2837 15.08840143 94802,6917.88,95.438,540.567,538.922,0.0
53890.0,STARLINK-5050,PAYLOAD,2024-06-03 09:46:56,15.08849162,0.0001797,53.212,301.1963,98.4976,261.6219,0.00039072,5.937e-05,0.0,0 STARLINK-5050,1 53890U 22119E   24155.40760414  .00005937  00000-0  39072-3 0  9991,2 53890  53.2120 301.1963 0001797  98.4976 261.6219 15.08849162 94497,6917.852,95.437,540.961,538.474,0.0
53890.0,STARLINK-5050,PAYLOAD,2024-06-03 16:08:29,15.08848954,0.0001817,53.2133,300.0069,96.2429,263.877,0.00033432,5.038e-05,0.0,0 STARLINK-5050,1 53890U 22119E   24155.67256421  .00005038  00000-0  33432-3 0  9994,2 53890  53.2133 300.0069 0001817  96.2429 263.8770 15.08848954 94953,6917.853,95.437,540.975,538.461,0.0
53890.0,STARLINK-5050,PAYLOAD,2024-06-04 15:59:16,15.08842808,0.0001749,53.2135,295.5472,92.7252,267.3941,0.00015949,2.251e-05,0.0,0 STARLINK-5050,1 53890U 22119E   24156.66616569  .00002251  00000-0  15949-3 0  9994,2 53890  53.2135 295.5472 0001749  92.7252 267.3941 15.08842808 94681,6917.872,95.437,540.947,538.527,0.0
53890.0,STARLINK-5050,PAYLOAD,2024-06-04 19:10:03,15.08841794,0.0001628,53.2162,294.954,92.8398,267.2781,0.00010881,1.444e-05,0.0,0 STARLINK-5050,1 53890U 22119E   24156.79864622  .00001444  00000-0  10881-3 0  9996,2 53890  53.2162 294.9540 0001628  92.8398 267.2781 15.08841794 95122,6917.875,95.437,540.866,538.614,0.0
53890.0,STARLINK-5050,PAYLOAD,2024-06-05 12:39:18,15.08827855,8.52e-05,53.2196,291.682,101.18,258.9288,2.3213e-05,8.2e-07,0.0,0 STARLINK-5050,1 53890U 22119E   24157.52729699  .00000082  00000-0  23213-4 0  9993,2 53890  53.2196 291.6820 0000852 101.1800 258.9288 15.08827855 94810,6917.918,95.438,540.372,539.193,0.0
53890.0,STARLINK-5050,PAYLOAD,2024-06-05 19:00:50,15.08827513,0.0001174,53.2141,290.493,94.061,266.0517,-6.5596e-05,-1.331e-05,0.0,0 STARLINK-5050,1 53890U 22119E   24157.79225615 -.00001331  00000-0 -65596-4 0  9991,2 53890  53.2141 290.4930 0001174  94.0610 266.0517 15.08827513 95273,6917.919,95.438,540.596,538.971,0.0
